COSMOS 2058             
1 20465U 90010A   26198.17895202  .00001803  00000+0  10283-3 0  9995
2 20465  82.4674 279.7754 0008061 241.4725 118.5695 15.12163192961801
SL-14 R/B               
1 20466U 90010B   26198.24730125  .00000183  00000+0  19218-4 0  9994
2 20466  82.5036 145.7157 0018493 230.0309 129.9283 14.83663713947697
SL-14 R/B               
1 20511U 90018B   26198.18733521  .00000200  00000+0  22026-4 0  9990
2 20511  82.5216 102.0682 0016876  30.6202 329.5993 14.82234781941762
HST                     
1 20580U 90037B   26198.26027256  .00003243  00000+0  97529-4 0  9997
2 20580  28.4720 234.9835 0002186 123.3656 236.7149 15.31073496793186
SL-16 R/B               
1 20625U 90046B   26197.99195386  .00000283  00000+0  17040-3 0  9996
2 20625  70.9988  26.3499 0012359 111.1432 249.1013 14.15025808866682
COSMOS 2084             
1 20663U 90055A   26197.60561664  .00000748  00000+0  64586-4 0  9996
2 20663  62.7881 255.6726 0008265 319.5810  40.4676 15.06226547955736
SL-6 R/B(2)             
1 20666U 90055D   26198.16712133  .00000972  00000+0  83167-4 0  9995
2 20666  62.7806 173.3496 0045432   9.2636 350.9291 15.04092603957660
SL-8 R/B                
1 20775U 90078B   26198.21871655  .00008043  00000+0  22788-3 0  9990
2 20775  82.9037 134.4790 0343228 296.6543  59.9907 14.93610839828604
SL-8 R/B                
1 21088U 91006B   26198.15620787  .00000082  00000+0  67136-4 0  9993
2 21088  82.9406  73.7368 0023327  35.2767 133.0598 13.77509477781893
OKEAN-3                 
1 21397U 91039A   26198.31594316  .00001772  00000+0  12135-3 0  9993
2 21397  82.5145 211.1613 0012586 246.5301 113.4604 15.05441743884538
COSMOS 2151             
1 21422U 91042A   26198.33564143  .00000898  00000+0  69042-4 0  9991
2 21422  82.4982 318.5853 0011756 348.1519  11.9426 15.00516457882634
SL-14 R/B               
1 21423U 91042B   26198.13274774  .00000181  00000+0  19839-4 0  9992
2 21423  82.4931  98.8146 0017163 170.5729 189.5811 14.81918646872240
ERS-1                   
1 21574U 91050A   26198.05294284  .00000177  00000+0  71316-4 0  9990
2 21574  98.7795 219.4803 0032023 176.3094 183.8335 14.39534196834341
ARIANE 40 R/B           
1 21610U 91050F   26198.07421633  .00000109  00000+0  44890-4 0  9995
2 21610  98.1862 245.3245 0004079  57.3214 302.8370 14.42972467837651
INTERCOSMOS 25          
1 21819U 91086A   26198.15677946  .00000094  00000+0  15423-4 0  9997
2 21819  82.6004 231.6740 1484676 197.6921 156.6658 12.12241021512378
SL-8 R/B                
1 21876U 92008B   26198.32440090  .00000096  00000+0  82349-4 0  9995
2 21876  82.9273 171.3804 0035773 130.8312  35.4187 13.75984124727248
SL-8 R/B                
1 21938U 92020B   26198.04395917 -.00000001  00000+0 -16837-4 0  9991
2 21938  82.9280  57.6766 0027879 298.1110 228.6449 13.75550061718910
USA 81                  
1 21949U 92023A   26198.03353250  .00000095  00000+0  27915-4 0  9999
2 21949  85.0050  56.7770 0001907  65.6219 294.5172 14.32405236113301
COSMOS 2219             
1 22219U 92076A   26197.97096867 -.00000238  00000+0 -10027-3 0  9994
2 22219  71.0610 107.8115 0018367 354.7893   5.3035 14.14108060736658
SL-16 R/B               
1 22220U 92076B   26198.24084649  .00000026  00000+0  36660-4 0  9997
2 22220  71.0003 275.4723 0015030 259.5721 133.9932 14.16877977740188
COSMOS 2221             
1 22236U 92080A   26198.29342422  .00000833  00000+0  70663-4 0  9997
2 22236  82.5047 154.9203 0015830 113.8330 246.4553 14.96607157800174
SL-16 R/B               
1 22285U 92093B   26198.13559066 -.00000259  00000+0 -10802-3 0  9994
2 22285  71.0215  92.5220 0002208 129.3844 230.7475 14.15465033731472
COSMOS 2228             
1 22286U 92094A   26198.22061867  .00000816  00000+0  67285-4 0  9998
2 22286  82.5188 113.2754 0016460 221.8714 138.1251 14.97678978795445
SL-16 R/B               
1 22566U 93016B   26198.26019548  .00000276  00000+0  16632-3 0  9996
2 22566  71.0086 303.0435 0008758 134.2775 225.9068 14.15313778720506
COSMOS 2242             
1 22626U 93024A   26198.26071023  .00000877  00000+0  73872-4 0  9995
2 22626  82.5199 142.7708 0014781 225.0512 134.9513 14.96988204799777
SL-16 R/B               
1 22803U 93059B   26198.20419802  .00000001  00000+0  24434-4 0  9994
2 22803  70.9901  98.0042 0016759   5.5668 354.5639 14.17249361697885
ARIANE 40 R/B           
1 22830U 93061H   26198.16156986  .00000068  00000+0  40554-4 0  9997
2 22830  98.4805 264.3939 0009518 259.2192 100.7921 14.32918978712642
COSMOS 2278             
1 23087U 94023A   26198.16265534  .00000078  00000+0  65330-4 0  9991
2 23087  71.0520 264.2097 0009530 202.6167 157.4537 14.14393589663114
SL-16 R/B               
1 23088U 94023B   26198.29240900  .00000214  00000+0  13532-3 0  9994
2 23088  70.9986 158.7073 0001366 120.0226 240.1033 14.15025369664423
SL-16 R/B               
1 23343U 94074B   26198.03439481  .00000181  00000+0  30783-4 0  9991
2 23343  97.6986 223.5104 0007306 148.8673 240.9902 14.79525266706378
